{
  "type": "FeatureCollection",
  "features": [
    {
      "type": "Feature",
      "properties": {
        "norad_id": 32088,
        "name": "FENGYUN 1C DEB",
        "group": "fengyun-1c-debris",
        "lat": 64.82404598468513,
        "lon": 51.2785571331576,
        "alt_km": 1193.1142117764775,
        "timestamp": "2025-12-04T21:36:16.158126+00:00",
        "meta_object_name": "FENGYUN 1C DEB",
        "meta_object_id": "1999-025CQE",
        "meta_epoch": "2025-12-03T08:50:08.706912",
        "meta_mean_motion": 13.25117787,
        "meta_eccentricity": 0.04610073,
        "meta_inclination": 102.4015,
        "meta_ra_of_asc_node": 201.5414,
        "meta_arg_of_pericenter": 17.0151,
        "meta_mean_anomaly": 344.5857,
        "meta_ephemeris_type": 0,
        "meta_classification_type": "U",
        "meta_norad_cat_id": 32088,
        "meta_element_set_no": 999,
        "meta_rev_at_epoch": 59720,
        "meta_bstar": 0.0053156196,
        "meta_mean_motion_dot": 4.028e-05,
        "meta_mean_motion_ddot": 0,
        "tle_line1": "1 32088U 99025CQE 25337.36815633  .00004028  00000+0  53156-2 0  9996",
        "tle_line2": "2 32088 102.4015 201.5414 0461007  17.0151 344.5857 13.25117787597207"
      },
      "geometry": {
        "type": "Point",
        "coordinates": [
          51.2785571331576,
          64.82404598468513
        ]
      }
    },
    {
      "type": "Feature",
      "properties": {
        "norad_id": 32089,
        "name": "FENGYUN 1C DEB",
        "group": "fengyun-1c-debris",
        "lat": -40.03177878395292,
        "lon": 157.36922992635266,
        "alt_km": 829.2891821261564,
        "timestamp": "2025-12-04T21:36:16.158136+00:00",
        "meta_object_name": "FENGYUN 1C DEB",
        "meta_object_id": "1999-025CQF",
        "meta_epoch": "2025-11-26T07:05:08.743776",
        "meta_mean_motion": 14.1401839,
        "meta_eccentricity": 0.01118311,
        "meta_inclination": 98.6554,
        "meta_ra_of_asc_node": 336.3858,
        "meta_arg_of_pericenter": 170.8108,
        "meta_mean_anomaly": 189.5147,
        "meta_ephemeris_type": 0,
        "meta_classification_type": "U",
        "meta_norad_cat_id": 32089,
        "meta_element_set_no": 999,
        "meta_rev_at_epoch": 62983,
        "meta_bstar": 0.00062311827,
        "meta_mean_motion_dot": 1.215e-05,
        "meta_mean_motion_ddot": 0,
        "tle_line1": "1 32089U 99025CQF 25330.29524009  .00001215  00000+0  62312-3 0  9996",
        "tle_line2": "2 32089  98.6554 336.3858 0111831 170.8108 189.5147 14.14018390629831"
      },
      "geometry": {
        "type": "Point",
        "coordinates": [
          157.36922992635266,
          -40.03177878395292
        ]
      }
    },
    {
      "type": "Feature",
      "properties": {
        "norad_id": 32093,
        "name": "FENGYUN 1C DEB",
        "group": "fengyun-1c-debris",
        "lat": 4.872661199303231,
        "lon": 12.207019425152216,
        "alt_km": 821.7947511080338,
        "timestamp": "2025-12-04T21:36:16.158146+00:00",
        "meta_object_name": "FENGYUN 1C DEB",
        "meta_object_id": "1999-025CQK",
        "meta_epoch": "2025-12-03T01:21:54.068256",
        "meta_mean_motion": 14.37564679,
        "meta_eccentricity": 0.00798444,
        "meta_inclination": 98.9206,
        "meta_ra_of_asc_node": 189.5281,
        "meta_arg_of_pericenter": 21.9826,
        "meta_mean_anomaly": 338.4753,
        "meta_ephemeris_type": 0,
        "meta_classification_type": "U",
        "meta_norad_cat_id": 32093,
        "meta_element_set_no": 999,
        "meta_rev_at_epoch": 96378,
        "meta_bstar": 0.00052363657,
        "meta_mean_motion_dot": 1.581e-05,
        "meta_mean_motion_ddot": 0,
        "tle_line1": "1 32093U 99025CQK 25337.05687579  .00001581  00000+0  52364-3 0  9996",
        "tle_line2": "2 32093  98.9206 189.5281 0079844  21.9826 338.4753 14.37564679963785"
      },
      "geometry": {
        "type": "Point",
        "coordinates": [
          12.207019425152216,
          4.872661199303231
        ]
      }
    },
    {
      "type": "Feature",
      "properties": {
        "norad_id": 32094,
        "name": "FENGYUN 1C DEB",
        "group": "fengyun-1c-debris",
        "lat": -0.9309360719306524,
        "lon": -30.332314455505006,
        "alt_km": 850.4329387487196,
        "timestamp": "2025-12-04T21:36:16.158156+00:00",
        "meta_object_name": "FENGYUN 1C DEB",
        "meta_object_id": "1999-025CQL",
        "meta_epoch": "2025-12-01T22:06:55.792512",
        "meta_mean_motion": 14.10702032,
        "meta_eccentricity": 0.00343203,
        "meta_inclination": 98.7444,
        "meta_ra_of_asc_node": 326.6263,
        "meta_arg_of_pericenter": 300.0247,
        "meta_mean_anomaly": 59.7521,
        "meta_ephemeris_type": 0,
        "meta_classification_type": "U",
        "meta_norad_cat_id": 32094,
        "meta_element_set_no": 999,
        "meta_rev_at_epoch": 94212,
        "meta_bstar": 0.00046947738,
        "meta_mean_motion_dot": 8e-06,
        "meta_mean_motion_ddot": 0,
        "tle_line1": "1 32094U 99025CQL 25335.92147908  .00000800  00000+0  46948-3 0  9992",
        "tle_line2": "2 32094  98.7444 326.6263 0034320 300.0247  59.7521 14.10702032942129"
      },
      "geometry": {
        "type": "Point",
        "coordinates": [
          -30.332314455505006,
          -0.9309360719306524
        ]
      }
    },
    {
      "type": "Feature",
      "properties": {
        "norad_id": 32095,
        "name": "FENGYUN 1C DEB",
        "group": "fengyun-1c-debris",
        "lat": 19.917328411905242,
        "lon": -8.409931819576428,
        "alt_km": 842.3972842796766,
        "timestamp": "2025-12-04T21:36:16.158165+00:00",
        "meta_object_name": "FENGYUN 1C DEB",
        "meta_object_id": "1999-025CQM",
        "meta_epoch": "2025-12-01T18:53:30.579936",
        "meta_mean_motion": 14.16020076,
        "meta_eccentricity": 0.00791206,
        "meta_inclination": 98.6419,
        "meta_ra_of_asc_node": 351.7287,
        "meta_arg_of_pericenter": 123.2072,
        "meta_mean_anomaly": 237.6721,
        "meta_ephemeris_type": 0,
        "meta_classification_type": "U",
        "meta_norad_cat_id": 32095,
        "meta_element_set_no": 999,
        "meta_rev_at_epoch": 94662,
        "meta_bstar": 0.00029755138,
        "meta_mean_motion_dot": 5.63e-06,
        "meta_mean_motion_ddot": 0,
        "tle_line1": "1 32095U 99025CQM 25335.78715949  .00000563  00000+0  29755-3 0  9996",
        "tle_line2": "2 32095  98.6419 351.7287 0079120 123.2072 237.6721 14.16020076946629"
      },
      "geometry": {
        "type": "Point",
        "coordinates": [
          -8.409931819576428,
          19.917328411905242
        ]
      }
    },
    {
      "type": "Feature",
      "properties": {
        "norad_id": 32096,
        "name": "FENGYUN 1C DEB",
        "group": "fengyun-1c-debris",
        "lat": -1.1283816970871485,
        "lon": -172.09876866126766,
        "alt_km": 838.5918292922961,
        "timestamp": "2025-12-04T21:36:16.158175+00:00",
        "meta_object_name": "FENGYUN 1C DEB",
        "meta_object_id": "1999-025CQN",
        "meta_epoch": "2025-12-01T13:16:49.852128",
        "meta_mean_motion": 13.9013068,
        "meta_eccentricity": 0.01346343,
        "meta_inclination": 99.0772,
        "meta_ra_of_asc_node": 4.8151,
        "meta_arg_of_pericenter": 170.0146,
        "meta_mean_anomaly": 190.3736,
        "meta_ephemeris_type": 0,
        "meta_classification_type": "U",
        "meta_norad_cat_id": 32096,
        "meta_element_set_no": 999,
        "meta_rev_at_epoch": 92706,
        "meta_bstar": 0.0012264124,
        "meta_mean_motion_dot": 1.588e-05,
        "meta_mean_motion_ddot": 0,
        "tle_line1": "1 32096U 99025CQN 25335.55335477  .00001588  00000+0  12264-2 0  9990",
        "tle_line2": "2 32096  99.0772   4.8151 0134634 170.0146 190.3736 13.90130680927069"
      },
      "geometry": {
        "type": "Point",
        "coordinates": [
          -172.09876866126766,
          -1.1283816970871485
        ]
      }
    },
    {
      "type": "Feature",
      "properties": {
        "norad_id": 32098,
        "name": "FENGYUN 1C DEB",
        "group": "fengyun-1c-debris",
        "lat": 81.26400886475295,
        "lon": -127.95315560612381,
        "alt_km": 726.6892114542079,
        "timestamp": "2025-12-04T21:36:16.158185+00:00",
        "meta_object_name": "FENGYUN 1C DEB",
        "meta_object_id": "1999-025CQQ",
        "meta_epoch": "2025-11-29T05:54:21.217824",
        "meta_mean_motion": 14.20229965,
        "meta_eccentricity": 0.01954302,
        "meta_inclination": 98.6126,
        "meta_ra_of_asc_node": 326.0376,
        "meta_arg_of_pericenter": 158.6882,
        "meta_mean_anomaly": 202.2577,
        "meta_ephemeris_type": 0,
        "meta_classification_type": "U",
        "meta_norad_cat_id": 32098,
        "meta_element_set_no": 999,
        "meta_rev_at_epoch": 64036,
        "meta_bstar": 0.00026691948,
        "meta_mean_motion_dot": 6.47e-06,
        "meta_mean_motion_ddot": 0,
        "tle_line1": "1 32098U 99025CQQ 25333.24607891  .00000647  00000+0  26692-3 0  9994",
        "tle_line2": "2 32098  98.6126 326.0376 0195430 158.6882 202.2577 14.20229965640367"
      },
      "geometry": {
        "type": "Point",
        "coordinates": [
          -127.95315560612381,
          81.26400886475295
        ]
      }
    }
  ]
}